STARLINK-4492           
1 53410U 22097Y   22242.25001157  .00060619  00000+0  43358-3 0  9993
2 53410  53.2197 148.7988 0001030  64.4351 194.4109 15.73180519  3588
STARLINK-4497           
1 53411U 22097Z   22241.91667824 -.00010759  00000+0 -72407-4 0  9995
2 53411  53.2201 150.4493 0000889  91.7779  76.9211 15.73179904  1306
STARLINK-4496           
1 53412U 22097AA  22241.91667824 -.00008826  00000+0 -58479-4 0  9991
2 53412  53.2200 150.4430 0001487  85.2229  86.5318 15.73219615  1309
STARLINK-4500           
1 53413U 22097AB  22242.25001157  .00064335  00000+0  45970-3 0  9997
2 53413  53.2194 148.7965 0001251  71.4882 187.8904 15.73179733  3580
STARLINK-4304           
1 53414U 22097AC  22241.91667824  .00009975  00000+0  75466-4 0  9992
2 53414  53.2197 150.4411 0001267  87.3800  84.8296 15.73180053  1308
STARLINK-4479           
1 53415U 22097AD  22242.25001157  .00023292  00000+0  16994-3 0  9990
2 53415  53.2197 148.7921 0000978  54.5353 207.3371 15.73195673  3584
STARLINK-4480           
1 53416U 22097AE  22242.25001157  .00066182  00000+0  47283-3 0  9991
2 53416  53.2202 148.7850 0001378  73.7516 189.8230 15.73171856  3587
STARLINK-4484           
1 53417U 22097AF  22242.25001157 -.00015635  00000+0 -10699-3 0  9992
2 53417  53.2194 148.7906 0001213  68.8936 193.4947 15.73243035  3584
STARLINK-4481           
1 53418U 22097AG  22241.91667824  .00012130  00000+0  90789-4 0  9998
2 53418  53.2198 150.3291 0001067  88.5297 138.0796 15.73180244  1308
STARLINK-4476           
1 53419U 22097AH  22242.25001157  .00035242  00000+0  25472-3 0  9993
2 53419  53.2192 148.7883 0001066  62.0969 200.9985 15.73176654  3584
STARLINK-4552           
1 53420U 22097AJ  22241.91667824 -.00086631  00000+0 -61738-3 0  9991
2 53420  53.2200 150.4323 0001124  91.7992  85.2922 15.73269249  1301
STARLINK-4545           
1 53421U 22097AK  22241.91667824 -.00063184  00000+0 -44827-3 0  9990
2 53421  53.2197 150.4345 0001080  84.0087  91.3337 15.73246614  1301
