CCSDS_OMM_VERS = 2.0
CREATION_DATE  = 
ORIGINATOR     = 

OBJECT_NAME    = STARLINK-4492
OBJECT_ID      = 2022-097Y
CENTER_NAME    = EARTH
REF_FRAME      = TEME
TIME_SYSTEM    = UTC
MEAN_ELEMENT_THEORY = SGP/SGP4

EPOCH          = 2022-08-30T06:00:00.999648
MEAN_MOTION    = 15.73180519
ECCENTRICITY   = .000103
INCLINATION    = 53.2197
RA_OF_ASC_NODE = 148.7988
ARG_OF_PERICENTER = 64.4351
MEAN_ANOMALY   = 194.4109

EPHEMERIS_TYPE = 0
CLASSIFICATION_TYPE = U
NORAD_CAT_ID   = 53410
ELEMENT_SET_NO = 999
REV_AT_EPOCH   = 358
BSTAR          = .43358E-3
MEAN_MOTION_DOT = .60619E-3
MEAN_MOTION_DDOT = 0

CCSDS_OMM_VERS = 2.0
CREATION_DATE  = 
ORIGINATOR     = 

OBJECT_NAME    = STARLINK-4497
OBJECT_ID      = 2022-097Z
CENTER_NAME    = EARTH
REF_FRAME      = TEME
TIME_SYSTEM    = UTC
MEAN_ELEMENT_THEORY = SGP/SGP4

EPOCH          = 2022-08-29T22:00:00.999936
MEAN_MOTION    = 15.73179904
ECCENTRICITY   = .0000889
INCLINATION    = 53.2201
RA_OF_ASC_NODE = 150.4493
ARG_OF_PERICENTER = 91.7779
MEAN_ANOMALY   = 76.9211

EPHEMERIS_TYPE = 0
CLASSIFICATION_TYPE = U
NORAD_CAT_ID   = 53411
ELEMENT_SET_NO = 999
REV_AT_EPOCH   = 130
BSTAR          = -.72407E-4
MEAN_MOTION_DOT = -.10759E-3
MEAN_MOTION_DDOT = 0

CCSDS_OMM_VERS = 2.0
CREATION_DATE  = 
ORIGINATOR     = 

OBJECT_NAME    = STARLINK-4496
OBJECT_ID      = 2022-097AA
CENTER_NAME    = EARTH
REF_FRAME      = TEME
TIME_SYSTEM    = UTC
MEAN_ELEMENT_THEORY = SGP/SGP4

EPOCH          = 2022-08-29T22:00:00.999936
MEAN_MOTION    = 15.73219615
ECCENTRICITY   = .0001487
INCLINATION    = 53.2200
RA_OF_ASC_NODE = 150.4430
ARG_OF_PERICENTER = 85.2229
MEAN_ANOMALY   = 86.5318

EPHEMERIS_TYPE = 0
CLASSIFICATION_TYPE = U
NORAD_CAT_ID   = 53412
ELEMENT_SET_NO = 999
REV_AT_EPOCH   = 130
BSTAR          = -.58479E-4
MEAN_MOTION_DOT = -.8826E-4
MEAN_MOTION_DDOT = 0

CCSDS_OMM_VERS = 2.0
CREATION_DATE  = 
ORIGINATOR     = 

OBJECT_NAME    = STARLINK-4500
OBJECT_ID      = 2022-097AB
CENTER_NAME    = EARTH
REF_FRAME      = TEME
TIME_SYSTEM    = UTC
MEAN_ELEMENT_THEORY = SGP/SGP4

EPOCH          = 2022-08-30T06:00:00.999648
MEAN_MOTION    = 15.73179733
ECCENTRICITY   = .0001251
INCLINATION    = 53.2194
RA_OF_ASC_NODE = 148.7965
ARG_OF_PERICENTER = 71.4882
MEAN_ANOMALY   = 187.8904

EPHEMERIS_TYPE = 0
CLASSIFICATION_TYPE = U
NORAD_CAT_ID   = 53413
ELEMENT_SET_NO = 999
REV_AT_EPOCH   = 358
BSTAR          = .4597E-3
MEAN_MOTION_DOT = .64335E-3
MEAN_MOTION_DDOT = 0

CCSDS_OMM_VERS = 2.0
CREATION_DATE  = 
ORIGINATOR     = 

OBJECT_NAME    = STARLINK-4304
OBJECT_ID      = 2022-097AC
CENTER_NAME    = EARTH
REF_FRAME      = TEME
TIME_SYSTEM    = UTC
MEAN_ELEMENT_THEORY = SGP/SGP4

EPOCH          = 2022-08-29T22:00:00.999936
MEAN_MOTION    = 15.73180053
ECCENTRICITY   = .0001267
INCLINATION    = 53.2197
RA_OF_ASC_NODE = 150.4411
ARG_OF_PERICENTER = 87.3800
MEAN_ANOMALY   = 84.8296

EPHEMERIS_TYPE = 0
CLASSIFICATION_TYPE = U
NORAD_CAT_ID   = 53414
ELEMENT_SET_NO = 999
REV_AT_EPOCH   = 130
BSTAR          = .75466E-4
MEAN_MOTION_DOT = .9975E-4
MEAN_MOTION_DDOT = 0

CCSDS_OMM_VERS = 2.0
CREATION_DATE  = 
ORIGINATOR     = 

OBJECT_NAME    = STARLINK-4479
OBJECT_ID      = 2022-097AD
CENTER_NAME    = EARTH
REF_FRAME      = TEME
TIME_SYSTEM    = UTC
MEAN_ELEMENT_THEORY = SGP/SGP4

EPOCH          = 2022-08-30T06:00:00.999648
MEAN_MOTION    = 15.73195673
ECCENTRICITY   = .0000978
INCLINATION    = 53.2197
RA_OF_ASC_NODE = 148.7921
ARG_OF_PERICENTER = 54.5353
MEAN_ANOMALY   = 207.3371

EPHEMERIS_TYPE = 0
CLASSIFICATION_TYPE = U
NORAD_CAT_ID   = 53415
ELEMENT_SET_NO = 999
REV_AT_EPOCH   = 358
BSTAR          = .16994E-3
MEAN_MOTION_DOT = .23292E-3
MEAN_MOTION_DDOT = 0

CCSDS_OMM_VERS = 2.0
CREATION_DATE  = 
ORIGINATOR     = 

OBJECT_NAME    = STARLINK-4480
OBJECT_ID      = 2022-097AE
CENTER_NAME    = EARTH
REF_FRAME      = TEME
TIME_SYSTEM    = UTC
MEAN_ELEMENT_THEORY = SGP/SGP4

EPOCH          = 2022-08-30T06:00:00.999648
MEAN_MOTION    = 15.73171856
ECCENTRICITY   = .0001378
INCLINATION    = 53.2202
RA_OF_ASC_NODE = 148.7850
ARG_OF_PERICENTER = 73.7516
MEAN_ANOMALY   = 189.8230

EPHEMERIS_TYPE = 0
CLASSIFICATION_TYPE = U
NORAD_CAT_ID   = 53416
ELEMENT_SET_NO = 999
REV_AT_EPOCH   = 358
BSTAR          = .47283E-3
MEAN_MOTION_DOT = .66182E-3
MEAN_MOTION_DDOT = 0

CCSDS_OMM_VERS = 2.0
CREATION_DATE  = 
ORIGINATOR     = 

OBJECT_NAME    = STARLINK-4484
OBJECT_ID      = 2022-097AF
CENTER_NAME    = EARTH
REF_FRAME      = TEME
TIME_SYSTEM    = UTC
MEAN_ELEMENT_THEORY = SGP/SGP4

EPOCH          = 2022-08-30T06:00:00.999648
MEAN_MOTION    = 15.73243035
ECCENTRICITY   = .0001213
INCLINATION    = 53.2194
RA_OF_ASC_NODE = 148.7906
ARG_OF_PERICENTER = 68.8936
MEAN_ANOMALY   = 193.4947

EPHEMERIS_TYPE = 0
CLASSIFICATION_TYPE = U
NORAD_CAT_ID   = 53417
ELEMENT_SET_NO = 999
REV_AT_EPOCH   = 358
BSTAR          = -.10699E-3
MEAN_MOTION_DOT = -.15635E-3
MEAN_MOTION_DDOT = 0

CCSDS_OMM_VERS = 2.0
CREATION_DATE  = 
ORIGINATOR     = 

OBJECT_NAME    = STARLINK-4481
OBJECT_ID      = 2022-097AG
CENTER_NAME    = EARTH
REF_FRAME      = TEME
TIME_SYSTEM    = UTC
MEAN_ELEMENT_THEORY = SGP/SGP4

EPOCH          = 2022-08-29T22:00:00.999936
MEAN_MOTION    = 15.73180244
ECCENTRICITY   = .0001067
INCLINATION    = 53.2198
RA_OF_ASC_NODE = 150.3291
ARG_OF_PERICENTER = 88.5297
MEAN_ANOMALY   = 138.0796

EPHEMERIS_TYPE = 0
CLASSIFICATION_TYPE = U
NORAD_CAT_ID   = 53418
ELEMENT_SET_NO = 999
REV_AT_EPOCH   = 130
BSTAR          = .90789E-4
MEAN_MOTION_DOT = .1213E-3
MEAN_MOTION_DDOT = 0

CCSDS_OMM_VERS = 2.0
CREATION_DATE  = 
ORIGINATOR     = 

OBJECT_NAME    = STARLINK-4476
OBJECT_ID      = 2022-097AH
CENTER_NAME    = EARTH
REF_FRAME      = TEME
TIME_SYSTEM    = UTC
MEAN_ELEMENT_THEORY = SGP/SGP4

EPOCH          = 2022-08-30T06:00:00.999648
MEAN_MOTION    = 15.73176654
ECCENTRICITY   = .0001066
INCLINATION    = 53.2192
RA_OF_ASC_NODE = 148.7883
ARG_OF_PERICENTER = 62.0969
MEAN_ANOMALY   = 200.9985

EPHEMERIS_TYPE = 0
CLASSIFICATION_TYPE = U
NORAD_CAT_ID   = 53419
ELEMENT_SET_NO = 999
REV_AT_EPOCH   = 358
BSTAR          = .25472E-3
MEAN_MOTION_DOT = .35242E-3
MEAN_MOTION_DDOT = 0

CCSDS_OMM_VERS = 2.0
CREATION_DATE  = 
ORIGINATOR     = 

OBJECT_NAME    = STARLINK-4552
OBJECT_ID      = 2022-097AJ
CENTER_NAME    = EARTH
REF_FRAME      = TEME
TIME_SYSTEM    = UTC
MEAN_ELEMENT_THEORY = SGP/SGP4

EPOCH          = 2022-08-29T22:00:00.999936
MEAN_MOTION    = 15.73269249
ECCENTRICITY   = .0001124
INCLINATION    = 53.2200
RA_OF_ASC_NODE = 150.4323
ARG_OF_PERICENTER = 91.7992
MEAN_ANOMALY   = 85.2922

EPHEMERIS_TYPE = 0
CLASSIFICATION_TYPE = U
NORAD_CAT_ID   = 53420
ELEMENT_SET_NO = 999
REV_AT_EPOCH   = 130
BSTAR          = -.61738E-3
MEAN_MOTION_DOT = -.86631E-3
MEAN_MOTION_DDOT = 0

CCSDS_OMM_VERS = 2.0
CREATION_DATE  = 
ORIGINATOR     = 

OBJECT_NAME    = STARLINK-4545
OBJECT_ID      = 2022-097AK
CENTER_NAME    = EARTH
REF_FRAME      = TEME
TIME_SYSTEM    = UTC
MEAN_ELEMENT_THEORY = SGP/SGP4

EPOCH          = 2022-08-29T22:00:00.999936
MEAN_MOTION    = 15.73246614
ECCENTRICITY   = .000108
INCLINATION    = 53.2197
RA_OF_ASC_NODE = 150.4345
ARG_OF_PERICENTER = 84.0087
MEAN_ANOMALY   = 91.3337

EPHEMERIS_TYPE = 0
CLASSIFICATION_TYPE = U
NORAD_CAT_ID   = 53421
ELEMENT_SET_NO = 999
REV_AT_EPOCH   = 130
BSTAR          = -.44827E-3
MEAN_MOTION_DOT = -.63184E-3
MEAN_MOTION_DDOT = 0

